start=new Date('2022-09-29T00:00:00.000Z').valueOf();
sats=[{"OBJECT_TYPE":"PAYLOAD","SITE":"AFETR","INCLINATION":"53.0559","ARG_OF_PERICENTER":"69.6562","OBJECT_ID":"2021-036A","DECAY_DATE":null,"FILE":"3586039","RA_OF_ASC_NODE":"295.5890","MEAN_ANOMALY":"290.4618","MEAN_MOTION_DOT":"0.00002101","ECCENTRICITY":"0.00017740","MEAN_MOTION_DDOT":"0.0000000000000","GP_ID":"213708504","RCS_SIZE":"LARGE","PERIAPSIS":"546.010","EPOCH":"2022-09-28T08:06:58.543776","NORAD_CAT_ID":"48276","SEMIMAJOR_AXIS":"6925.373","CENTER_NAME":"EARTH","MEAN_MOTION":"15.06391884","CLASSIFICATION_TYPE":"U","REV_AT_EPOCH":"7914","LAUNCH_DATE":"2021-04-29","REF_FRAME":"TEME","BSTAR":"0.00015991000000","TIME_SYSTEM":"UTC","TLE_LINE1":"1 48276U 21036A   22271.33817759  .00002101  00000-0  15991-3 0  9998","TLE_LINE2":"2 48276  53.0559 295.5890 0001774  69.6562 290.4618 15.06391884 79143","PERIOD":"95.593","MEAN_ELEMENT_THEORY":"SGP4","EPHEMERIS_TYPE":"0","APOAPSIS":"548.467","COUNTRY_CODE":"US","OBJECT_NAME":"STARLINK-2567","ELEMENT_SET_NO":"999"},{"RA_OF_ASC_NODE":"259.0928","FILE":"3586258","MEAN_MOTION_DOT":"0.00001917","MEAN_ANOMALY":"277.2050","ECCENTRICITY":"0.00013890","MEAN_MOTION_DDOT":"0.0000000000000","RCS_SIZE":"LARGE","PERIAPSIS":"546.254","GP_ID":"213764640","NORAD_CAT_ID":"48277","EPOCH":"2022-09-28T16:06:39.182112","OBJECT_TYPE":"PAYLOAD","SITE":"AFETR","ARG_OF_PERICENTER":"82.9096","INCLINATION":"53.0534","OBJECT_ID":"2021-036B","DECAY_DATE":null,"MEAN_ELEMENT_THEORY":"SGP4","EPHEMERIS_TYPE":"0","APOAPSIS":"548.177","COUNTRY_CODE":"US","ELEMENT_SET_NO":"999","OBJECT_NAME":"STARLINK-2569","CLASSIFICATION_TYPE":"U","MEAN_MOTION":"15.06399372","CENTER_NAME":"EARTH","SEMIMAJOR_AXIS":"6925.350","REV_AT_EPOCH":"7968","REF_FRAME":"TEME","LAUNCH_DATE":"2021-04-29","BSTAR":"0.00014753000000","TIME_SYSTEM":"UTC","TLE_LINE2":"2 48277  53.0534 259.0928 0001389  82.9096 277.2050 15.06399372 79688","PERIOD":"95.592","TLE_LINE1":"1 48277U 21036B   22271.67128683  .00001917  00000-0  14753-3 0  9996"},{"ELEMENT_SET_NO":"999","OBJECT_NAME":"STARLINK-2543","COUNTRY_CODE":"US","EPHEMERIS_TYPE":"0","APOAPSIS":"548.412","MEAN_ELEMENT_THEORY":"SGP4","PERIOD":"95.592","TLE_LINE2":"2 48278  53.0542 272.4971 0001753  68.7656 291.3520 15.06405097 80104","TLE_LINE1":"1 48278U 21036C   22272.04035313  .00002834  00000-0  20905-3 0  9991","REF_FRAME":"TEME","LAUNCH_DATE":"2021-04-29","BSTAR":"0.00020905000000","TIME_SYSTEM":"UTC","REV_AT_EPOCH":"8010","MEAN_MOTION":"15.06405097","CLASSIFICATION_TYPE":"U","CENTER_NAME":"EARTH","SEMIMAJOR_AXIS":"6925.333","RCS_SIZE":"LARGE","PERIAPSIS":"545.984","GP_ID":"213769394","NORAD_CAT_ID":"48278","EPOCH":"2022-09-29T00:58:06.510432","ECCENTRICITY":"0.00017530","MEAN_MOTION_DDOT":"0.0000000000000","FILE":"3586305","RA_OF_ASC_NODE":"272.4971","MEAN_MOTION_DOT":"0.00002834","MEAN_ANOMALY":"291.3520","OBJECT_ID":"2021-036C","DECAY_DATE":null,"SITE":"AFETR","ARG_OF_PERICENTER":"68.7656","INCLINATION":"53.0542","OBJECT_TYPE":"PAYLOAD"},{"GP_ID":"213709243","RCS_SIZE":"MEDIUM","PERIAPSIS":"546.091","EPOCH":"2022-09-28T10:27:37.808928","NORAD_CAT_ID":"48279","FILE":"3586039","RA_OF_ASC_NODE":"275.1430","MEAN_ANOMALY":"300.3500","MEAN_MOTION_DOT":"-0.00000500","ECCENTRICITY":"0.00016830","MEAN_MOTION_DDOT":"0.0000000000000","SITE":"AFETR","INCLINATION":"53.0526","ARG_OF_PERICENTER":"59.7656","OBJECT_ID":"2021-036D","DECAY_DATE":null,"OBJECT_TYPE":"PAYLOAD","COUNTRY_CODE":"US","OBJECT_NAME":"STARLINK-2580","ELEMENT_SET_NO":"999","MEAN_ELEMENT_THEORY":"SGP4","EPHEMERIS_TYPE":"0","APOAPSIS":"548.422","LAUNCH_DATE":"2021-04-29","REF_FRAME":"TEME","BSTAR":"-0.00001469300000","TIME_SYSTEM":"UTC","TLE_LINE1":"1 48279U 21036D   22271.43585427 -.00000500  00000-0 -14693-4 0  9998","TLE_LINE2":"2 48279  53.0526 275.1430 0001683  59.7656 300.3500 15.06385939 79434","PERIOD":"95.593","SEMIMAJOR_AXIS":"6925.392","CENTER_NAME":"EARTH","CLASSIFICATION_TYPE":"U","MEAN_MOTION":"15.06385939","REV_AT_EPOCH":"7943"},{"FILE":"3586258","RA_OF_ASC_NODE":"344.2838","MEAN_ANOMALY":"295.6863","MEAN_MOTION_DOT":"0.00000654","MEAN_MOTION_DDOT":"0.0000000000000","ECCENTRICITY":"0.00014700","GP_ID":"213763890","PERIAPSIS":"546.223","RCS_SIZE":"LARGE","EPOCH":"2022-09-28T15:04:57.599616","NORAD_CAT_ID":"48280","OBJECT_TYPE":"PAYLOAD","SITE":"AFETR","INCLINATION":"53.0560","ARG_OF_PERICENTER":"64.4278","OBJECT_ID":"2021-036E","DECAY_DATE":null,"MEAN_ELEMENT_THEORY":"SGP4","EPHEMERIS_TYPE":"0","APOAPSIS":"548.260","COUNTRY_CODE":"US","OBJECT_NAME":"STARLINK-2565","ELEMENT_SET_NO":"999","CENTER_NAME":"EARTH","SEMIMAJOR_AXIS":"6925.376","MEAN_MOTION":"15.06390893","CLASSIFICATION_TYPE":"U","REV_AT_EPOCH":"7848","LAUNCH_DATE":"2021-04-29","REF_FRAME":"TEME","BSTAR":"0.00006280000000","TIME_SYSTEM":"UTC","TLE_LINE1":"1 48280U 21036E   22271.62844444  .00000654  00000-0  62800-4 0  9999","TLE_LINE2":"2 48280  53.0560 344.2838 0001470  64.4278 295.6863 15.06390893 78488","PERIOD":"95.593"},{"OBJECT_TYPE":"PAYLOAD","OBJECT_ID":"2021-036F","DECAY_DATE":null,"SITE":"AFETR","INCLINATION":"53.0542","ARG_OF_PERICENTER":"50.6758","ECCENTRICITY":"0.00019450","MEAN_MOTION_DDOT":"0.0000000000000","RA_OF_ASC_NODE":"324.5168","FILE":"3586039","MEAN_ANOMALY":"309.4403","MEAN_MOTION_DOT":"0.00008768","GP_ID":"213708753","PERIAPSIS":"545.802","RCS_SIZE":"LARGE","EPOCH":"2022-09-28T13:47:58.929504","NORAD_CAT_ID":"48281","REV_AT_EPOCH":"7875","CENTER_NAME":"EARTH","SEMIMAJOR_AXIS":"6925.284","CLASSIFICATION_TYPE":"U","MEAN_MOTION":"15.06421057","TLE_LINE1":"1 48281U 21036F   22271.57498761  .00008768  00000-0  60644-3 0  9998","TLE_LINE2":"2 48281  53.0542 324.5168 0001945  50.6758 309.4403 15.06421057 78754","PERIOD":"95.591","LAUNCH_DATE":"2021-04-29","REF_FRAME":"TEME","TIME_SYSTEM":"UTC","BSTAR":"0.00060644000000","EPHEMERIS_TYPE":"0","APOAPSIS":"548.496","MEAN_ELEMENT_THEORY":"SGP4","OBJECT_NAME":"STARLINK-2520","ELEMENT_SET_NO":"999","COUNTRY_CODE":"US"},{"GP_ID":"213765389","PERIAPSIS":"546.200","RCS_SIZE":"LARGE","EPOCH":"2022-09-28T14:21:50.358528","NORAD_CAT_ID":"48282","MEAN_MOTION_DDOT":"0.0000000000000","ECCENTRICITY":"0.00015170","RA_OF_ASC_NODE":"329.4209","FILE":"3586258","MEAN_ANOMALY":"293.4927","MEAN_MOTION_DOT":"0.00000275","OBJECT_ID":"2021-036G","DECAY_DATE":null,"SITE":"AFETR","INCLINATION":"53.0551","ARG_OF_PERICENTER":"66.6221","OBJECT_TYPE":"PAYLOAD","OBJECT_NAME":"STARLINK-2558","ELEMENT_SET_NO":"999","COUNTRY_CODE":"US","EPHEMERIS_TYPE":"0","APOAPSIS":"548.301","MEAN_ELEMENT_THEORY":"SGP4","TLE_LINE1":"1 48282U 21036G   22271.59849952  .00000275  00000-0  37382-4 0  9992","PERIOD":"95.593","TLE_LINE2":"2 48282  53.0551 329.4209 0001517  66.6221 293.4927 15.06388058 78691","LAUNCH_DATE":"2021-04-29","REF_FRAME":"TEME","BSTAR":"0.00003738200000","TIME_SYSTEM":"UTC","REV_AT_EPOCH":"7869","CENTER_NAME":"EARTH","SEMIMAJOR_AXIS":"6925.385","CLASSIFICATION_TYPE":"U","MEAN_MOTION":"15.06388058"},{"ARG_OF_PERICENTER":"59.8570","INCLINATION":"53.0549","SITE":"AFETR","DECAY_DATE":null,"OBJECT_ID":"2021-036H","OBJECT_TYPE":"PAYLOAD","NORAD_CAT_ID":"48283","EPOCH":"2022-09-28T12:40:58.404000","PERIAPSIS":"546.223","RCS_SIZE":"MEDIUM","GP_ID":"213709743","MEAN_MOTION_DOT":"0.00002425","MEAN_ANOMALY":"300.2560","FILE":"3586039","RA_OF_ASC_NODE":"329.7288","ECCENTRICITY":"0.00014190","MEAN_MOTION_DDOT":"0.0000000000000","BSTAR":"0.00018164000000","TIME_SYSTEM":"UTC","REF_FRAME":"TEME","LAUNCH_DATE":"2021-04-29","TLE_LINE2":"2 48283  53.0549 329.7288 0001419  59.8570 300.2560 15.06402665 78681","PERIOD":"95.592","TLE_LINE1":"1 48283U 21036H   22271.52845375  .00002425  00000-0  18164-3 0  9996","CLASSIFICATION_TYPE":"U","MEAN_MOTION":"15.06402665","CENTER_NAME":"EARTH","SEMIMAJOR_AXIS":"6925.340","REV_AT_EPOCH":"7868","COUNTRY_CODE":"US","ELEMENT_SET_NO":"999","OBJECT_NAME":"STARLINK-2516","MEAN_ELEMENT_THEORY":"SGP4","APOAPSIS":"548.188","EPHEMERIS_TYPE":"0"},{"MEAN_MOTION_DOT":"0.00002741","MEAN_ANOMALY":"279.3176","RA_OF_ASC_NODE":"330.0396","FILE":"3586039","MEAN_MOTION_DDOT":"0.0000000000000","ECCENTRICITY":"0.00013930","NORAD_CAT_ID":"48284","EPOCH":"2022-09-28T11:00:07.105248","PERIAPSIS":"546.244","RCS_SIZE":"LARGE","GP_ID":"213708505","OBJECT_TYPE":"PAYLOAD","ARG_OF_PERICENTER":"80.7971","INCLINATION":"53.0569","SITE":"AFETR","DECAY_DATE":null,"OBJECT_ID":"2021-036J","MEAN_ELEMENT_THEORY":"SGP4","APOAPSIS":"548.174","EPHEMERIS_TYPE":"0","COUNTRY_CODE":"US","ELEMENT_SET_NO":"999","OBJECT_NAME":"STARLINK-2564","CLASSIFICATION_TYPE":"U","MEAN_MOTION":"15.06401461","CENTER_NAME":"EARTH","SEMIMAJOR_AXIS":"6925.344","REV_AT_EPOCH":"7866","BSTAR":"0.00020283000000","TIME_SYSTEM":"UTC","REF_FRAME":"TEME","LAUNCH_DATE":"2021-04-29","TLE_LINE2":"2 48284  53.0569 330.0396 0001393  80.7971 279.3176 15.06401461 78668","PERIOD":"95.592","TLE_LINE1":"1 48284U 21036J   22271.45841557  .00002741  00000-0  20283-3 0  9993"},{"OBJECT_ID":"2021-036K","DECAY_DATE":null,"SITE":"AFETR","ARG_OF_PERICENTER":"69.6555","INCLINATION":"53.0560","OBJECT_TYPE":"PAYLOAD","RCS_SIZE":"LARGE","PERIAPSIS":"546.338","GP_ID":"213739625","NORAD_CAT_ID":"48285","EPOCH":"2022-09-28T14:04:33.057408","ECCENTRICITY":"0.00013080","MEAN_MOTION_DDOT":"0.0000000000000","FILE":"3586094","RA_OF_ASC_NODE":"329.4599","MEAN_MOTION_DOT":"0.00003253","MEAN_ANOMALY":"290.4574","PERIOD":"95.593","TLE_LINE2":"2 48285  53.0560 329.4599 0001308  69.6555 290.4574 15.06390110 79268","TLE_LINE1":"1 48285U 21036K   22271.58649372  .00003253  00000-0  23723-3 0  9990","REF_FRAME":"TEME","LAUNCH_DATE":"2021-04-29","BSTAR":"0.00023723000000","TIME_SYSTEM":"UTC","REV_AT_EPOCH":"7926","MEAN_MOTION":"15.06390110","CLASSIFICATION_TYPE":"U","SEMIMAJOR_AXIS":"6925.379","CENTER_NAME":"EARTH","ELEMENT_SET_NO":"999","OBJECT_NAME":"STARLINK-2548","COUNTRY_CODE":"US","EPHEMERIS_TYPE":"0","APOAPSIS":"548.150","MEAN_ELEMENT_THEORY":"SGP4"}];
